NORAD_CAT_ID,OBJECT_NAME,OBJECT_TYPE,EPOCH,MEAN_MOTION,ECCENTRICITY,INCLINATION,RA_OF_ASC_NODE,ARG_OF_PERICENTER,MEAN_ANOMALY,BSTAR,MEAN_MOTION_DOT,MEAN_MOTION_DDOT,TLE_LINE0,TLE_LINE1,TLE_LINE2,SEMIMAJOR_AXIS,PERIOD,APOGEE,PERIGEE,DECAYED
228,DELTA 1 DEB (YO),DEBRIS,2021-02-24 20:09:47,15.01582266,0.001537,48.4307,340.039,340.4577,19.5756,4.9351e-05,3.85e-06,0.0,0 DELTA 1 DEB (YO),1 00228U 62002C   21055.84012847  .00000385  00000-0  49351-4 0  9991,2 00228  48.4307 340.0390 0015370 340.4577  19.5756 15.01582266149143,6940.154,95.899,572.686,551.352,0.0
228,DELTA 1 DEB (YO),DEBRIS,2021-02-25 00:57:14,15.01582475,0.001536,48.4307,339.0568,341.3903,18.6457,4.874100000000001e-05,3.77e-06,0.0,0 DELTA 1 DEB (YO),1   228U 62002C   21056.03975401  .00000377  00000-0  48741-4 0  9990,2   228  48.4307 339.0568 0015360 341.3903  18.6457 15.01582475173305,6940.153,95.899,572.678,551.3580000000002,0.0
228,DELTA 1 DEB (YO),DEBRIS,2021-02-25 21:42:54,15.01583758,0.0015316,48.4306,334.8008,345.1824,14.8649,4.882e-05,3.78e-06,0.0,0 DELTA 1 DEB (YO),1 00228U 62002C   21056.90479709  .00000378  00000-0  48820-4 0  9995,2 00228  48.4306 334.8008 0015316 345.1824  14.8649 15.01583758149300,6940.149,95.899,572.644,551.385,0.0
228,DELTA 1 DEB (YO),DEBRIS,2021-02-26 00:54:32,15.01583894,0.0015312000000000001,48.4306,334.1461,345.7729,14.2762,4.8314e-05,3.72e-06,0.0,0 DELTA 1 DEB (YO),1 00228U 62002C   21057.03788065  .00000372  00000-0  48314-4 0  9990,2 00228  48.4306 334.1461 0015312 345.7729  14.2762 15.01583894149325,6940.149,95.899,572.64,551.387,0.0
228,DELTA 1 DEB (YO),DEBRIS,2021-02-26 18:28:34,15.01584974,0.0015283,48.4305,330.5448,348.945,11.1136,4.9964e-05,3.93e-06,0.0,0 DELTA 1 DEB (YO),1   228U 62002C   21057.76983992  .00000393  00000-0  49964-4 0  9991,2   228  48.4305 330.5448 0015283 348.9450  11.1136 15.01584974173566,6940.145,95.899,572.617,551.404,0.0
228,DELTA 1 DEB (YO),DEBRIS,2021-02-26 20:04:23,15.01584598,0.0015275,48.4305,330.2174,349.2412,10.8183,4.337600000000001e-05,3.06e-06,0.0,0 DELTA 1 DEB (YO),1 00228U 62002C   21057.83638169  .00000306  00000-0  43376-4 0  9997,2 00228  48.4305 330.2174 0015275 349.2412  10.8183 15.01584598149442,6940.146,95.899,572.613,551.41,0.0
228,DELTA 1 DEB (YO),DEBRIS,2021-02-27 02:27:40,15.01584868,0.0015263,48.4304,328.9079,350.4033,9.6597,4.2437e-05,2.94e-06,0.0,0 DELTA 1 DEB (YO),1 00228U 62002C   21058.10254857  .00000294  00000-0  42437-4 0  9999,2 00228  48.4304 328.9079 0015263 350.4033   9.6597 15.01584868149488,6940.146,95.899,572.6030000000002,551.418,0.0
228,DELTA 1 DEB (YO),DEBRIS,2021-02-27 20:01:41,15.01585463,0.0015228,48.4304,325.3064,353.6687,6.4042,3.8012e-05,2.36e-06,0.0,0 DELTA 1 DEB (YO),1 00228U 62002C   21058.83450723  .00000236  00000-0  38012-4 0  9999,2 00228  48.4304 325.3064 0015228 353.6687   6.4042 15.01585463149598,6940.144,95.899,572.577,551.44,0.0
228,DELTA 1 DEB (YO),DEBRIS,2021-02-28 00:49:09,15.01585635,0.0015218,48.4303,324.3242,354.5598,5.5158,3.7446e-05,2.28e-06,0.0,0 DELTA 1 DEB (YO),1   228U 62002C   21059.03413228  .00000228  00000-0  37446-4 0  9992,2   228  48.4303 324.3242 0015218 354.5598   5.5158 15.01585635173758,6940.143,95.899,572.57,551.447,0.0
228,DELTA 1 DEB (YO),DEBRIS,2021-02-28 10:24:04,15.01586272,0.0015202,48.4303,322.3599,356.3312,3.7497,3.9180999999999996e-05,2.51e-06,0.0,0 DELTA 1 DEB (YO),1 00228U 62002C   21059.43338211  .00000251  00000-0  39181-4 0  9998,2 00228  48.4303 322.3599 0015202 356.3312   3.7497 15.01586272149687,6940.141,95.899,572.557,551.456,0.0
228,DELTA 1 DEB (YO),DEBRIS,2021-02-28 21:34:48,15.01586452,0.0015172,48.4302,320.0681,358.417,1.6703,3.5061e-05,1.97e-06,0.0,0 DELTA 1 DEB (YO),1 00228U 62002C   21059.89917374  .00000197  00000-0  35061-4 0  9993,2 00228  48.4302 320.0681 0015172 358.4170   1.6703 15.01586452149759,6940.141,95.899,572.535,551.476,0.0
228,DELTA 1 DEB (YO),DEBRIS,2021-02-28 23:10:37,15.01586505,0.001517,48.4302,319.7408,358.715,1.3732,3.494e-05,1.95e-06,0.0,0 DELTA 1 DEB (YO),1 00228U 62002C   21059.96571539  .00000195  00000-0  34940-4 0  9993,2 00228  48.4302 319.7408 0015170 358.7150   1.3732 15.01586505149769,6940.141,95.899,572.534,551.477,0.0
228,DELTA 1 DEB (YO),DEBRIS,2021-03-01 18:20:28,15.01587718,0.0015139,48.43,315.812,2.2827,357.8163,3.9248e-05,2.52e-06,0.0,0 DELTA 1 DEB (YO),1   228U 62002C   21060.76421462  .00000252  00000-0  39248-4 0  9992,2   228  48.4300 315.8120 0015139   2.2827 357.8163 15.01587718174012,6940.137,95.898,572.509,551.495,0.0
228,DELTA 1 DEB (YO),DEBRIS,2021-03-01 19:56:17,15.0158777,0.0015134,48.4301,315.4846,2.5858,357.5141,3.8894000000000004e-05,2.47e-06,0.0,0 DELTA 1 DEB (YO),1 00228U 62002C   21060.83075622  .00000247  00000-0  38894-4 0  9993,2 00228  48.4301 315.4846 0015134   2.5858 357.5141 15.01587770149895,6940.137,95.898,572.505,551.499,0.0
228,DELTA 1 DEB (YO),DEBRIS,2021-03-01 23:07:55,15.01587901,0.0015128,48.43,314.8298,3.1818,356.9199,3.8769e-05,2.46e-06,0.0,0 DELTA 1 DEB (YO),1 00228U 62002C   21060.96383941  .00000246  00000-0  38769-4 0  9993,2 00228  48.4300 314.8298 0015128   3.1818 356.9199 15.01587901149919,6940.1359999999995,95.898,572.5,551.502,0.0
228,DELTA 1 DEB (YO),DEBRIS,2021-03-02 21:29:24,15.01589252,0.0015082000000000001,48.4299,310.2463,7.3602,352.754,4.181e-05,2.86e-06,0.0,0 DELTA 1 DEB (YO),1 00228U 62002C   21061.89542095  .00000286  00000-0  41810-4 0  9998,2 00228  48.4299 310.2463 0015082   7.3602 352.7540 15.01589252150058,6940.132,95.898,572.464,551.53,0.0
228,DELTA 1 DEB (YO),DEBRIS,2021-03-02 23:05:13,15.01589328,0.001508,48.4299,309.9189,7.6685,352.4466,4.1843e-05,2.86e-06,0.0,0 DELTA 1 DEB (YO),1   228U 62002C   21061.96196248  .00000286  00000-0  41843-4 0  9997,2   228  48.4299 309.9189 0015080   7.6685 352.4466 15.01589328174199,6940.132,95.898,572.4630000000002,551.531,0.0
228,DELTA 1 DEB (YO),DEBRIS,2021-03-03 18:15:03,15.01590617,0.0015042,48.4297,305.9901,11.2246,348.9011,4.5702e-05,3.37e-06,0.0,0 DELTA 1 DEB (YO),1 00228U 62002C   21062.76046010  .00000337  00000-0  45702-4 0  9992,2 00228  48.4297 305.9901 0015042  11.2246 348.9011 15.01590617150189,6940.128000000002,95.898,572.432,551.554,0.0
228,DELTA 1 DEB (YO),DEBRIS,2021-03-04 00:38:20,15.01590912,0.0015033,48.4296,304.6806,12.4533,347.6759,4.552100000000002e-05,3.35e-06,0.0,0 DELTA 1 DEB (YO),1   228U 62002C   21063.02662593  .00000335  00000-0  45521-4 0  9999,2   228  48.4296 304.6806 0015033  12.4533 347.6759 15.01590912174358,6940.1269999999995,95.898,572.425,551.559,0.0
228,DELTA 1 DEB (YO),DEBRIS,2021-03-04 13:24:53,15.01591536,0.0015009,48.4295,302.0614,14.8123,345.3237,4.5713999999999996e-05,3.37e-06,0.0,0 DELTA 1 DEB (YO),1 00228U 62002C   21063.55895735  .00000337  00000-0  45714-4 0  9999,2 00228  48.4295 302.0614 0015009  14.8123 345.3237 15.01591536150308,6940.125,95.898,572.4069999999998,551.5740000000002,0.0
228,DELTA 1 DEB (YO),DEBRIS,2021-03-05 18:09:39,15.01592629,0.0014950999999999999,48.4292,296.1681,20.2703,339.8811,4.2859e-05,3e-06,0.0,0 DELTA 1 DEB (YO),1   228U 62002C   21064.75670248  .00000300  00000-0  42859-4 0  9999,2   228  48.4292 296.1681 0014951  20.2703 339.8811 15.01592629174612,6940.1219999999985,95.898,572.363,551.611,0.0
228,DELTA 1 DEB (YO),DEBRIS,2021-03-05 21:21:17,15.01592729,0.0014948000000000001,48.4292,295.5134,20.8799,339.2733,4.2424e-05,2.94e-06,0.0,0 DELTA 1 DEB (YO),1 00228U 62002C   21064.88978525  .00000294  00000-0  42424-4 0  9992,2 00228  48.4292 295.5134 0014948  20.8799 339.2733 15.01592729150505,6940.121,95.898,572.361,551.612,0.0
228,DELTA 1 DEB (YO),DEBRIS,2021-03-06 08:32:01,15.01593273,0.001493,48.4291,293.2216,22.9862,337.1727,4.2586e-05,2.96e-06,0.0,0 DELTA 1 DEB (YO),1 00228U 62002C   21065.35557464  .00000296  00000-0  42586-4 0  9991,2 00228  48.4291 293.2216 0014930  22.9862 337.1727 15.01593273150577,6940.12,95.898,572.346,551.623,0.0
228,DELTA 1 DEB (YO),DEBRIS,2021-03-06 21:18:35,15.01593885,0.0014904999999999999,48.428999999999995,290.6022,25.391,334.7743,4.2551999999999995e-05,2.96e-06,0.0,0 DELTA 1 DEB (YO),1 00228U 62002C   21065.88790511  .00000296  00000-0  42552-4 0  9994,2 00228  48.4290 290.6022 0014905  25.3910 334.7743 15.01593885150654,6940.118,95.898,572.327,551.639,0.0
228,DELTA 1 DEB (YO),DEBRIS,2021-03-07 14:52:35,15.01594731,0.0014876,48.4289,287.0007,28.6994,331.4745,4.1972e-05,2.88e-06,0.0,0 DELTA 1 DEB (YO),1 00228U 62002C   21066.61985908  .00000288  00000-0  41972-4 0  9998,2 00228  48.4289 287.0007 0014876  28.6994 331.4745 15.01594731150769,6940.115,95.898,572.304,551.656,0.0
228,DELTA 1 DEB (YO),DEBRIS,2021-03-08 21:13:09,15.01596117,0.001483,48.4287,280.7798,34.3857,325.8024,4.0636e-05,2.7000000000000004e-06,0.0,0 DELTA 1 DEB (YO),1   228U 62002C   21067.88414205  .00000270  00000-0  40636-4 0  9992,2   228  48.4287 280.7798 0014830  34.3857 325.8024 15.01596117175085,6940.111,95.898,572.268,551.684,0.0
228,DELTA 1 DEB (YO),DEBRIS,2021-03-09 06:48:04,15.01596438,0.0014822000000000001,48.4287,278.8155,36.2549,323.9376,3.8997e-05,2.49e-06,0.0,0 DELTA 1 DEB (YO),1 00228U 62002C   21068.28338913  .00000249  00000-0  38997-4 0  9991,2 00228  48.4287 278.8155 0014822  36.2549 323.9376 15.01596438151012,6940.11,95.898,572.262,551.688,0.0
228,DELTA 1 DEB (YO),DEBRIS,2021-03-09 19:34:38,15.01596948,0.0014792,48.4286,276.19599999999997,38.6857,321.5123,3.8602e-05,2.44e-06,0.0,0 DELTA 1 DEB (YO),1 00228U 62002C   21068.81571826  .00000244  00000-0  38602-4 0  9990,2 00228  48.4286 276.1960 0014792  38.6857 321.5123 15.01596948151098,6940.108,95.898,572.239,551.7080000000002,0.0
228,DELTA 1 DEB (YO),DEBRIS,2021-03-10 06:45:22,15.01597253,0.0014777999999999998,48.4286,273.9042,40.8201,319.3827,3.6766999999999995e-05,2.19e-06,0.0,0 DELTA 1 DEB (YO),1 00228U 62002C   21069.28150625  .00000219  00000-0  36767-4 0  9994,2 00228  48.4286 273.9042 0014778  40.8201 319.3827 15.01597253151160,6940.108,95.898,572.229,551.716,0.0
